{
"type": "FeatureCollection",
"name": "cabofrio_fua",
"crs": { "type": "name", "properties": { "name": "urn:ogc:def:crs:OGC:1.3:CRS84" } },
"features": [
{ "type": "Feature", "properties": { "eFUA_ID": 7112.0, "eFUA_name": "Cabo Frio", "UC_num": 1.0, "Cntry_ISO": "BRA", "FUA_area": 338.0, "FUA_p_2015": 303623.36055237055, "UC_p_2015": 199655.88911151886 }, "geometry": { "type": "MultiPolygon", "coordinates": [ [ [ [ -42.055693076463029, -22.754452070369044 ], [ -42.045202756414028, -22.754452070369044 ], [ -42.046794000217822, -22.76279392199833 ], [ -42.025812566085975, -22.76279392199833 ], [ -42.027403767518081, -22.771135967473835 ], [ -42.006421538977136, -22.771135967473835 ], [ -42.008012697515703, -22.779478206882647 ], [ -41.997521185852989, -22.779478206882647 ], [ -41.999112698555969, -22.787820640311846 ], [ -41.967636970827847, -22.787820640311846 ], [ -41.966046650864833, -22.779478206882647 ], [ -41.955555139202126, -22.779478206882647 ], [ -41.953965967624768, -22.771135967473835 ], [ -41.943474853354289, -22.771135967473835 ], [ -41.941886829558591, -22.76279392199833 ], [ -41.931396112492671, -22.76279392199833 ], [ -41.93934174975081, -22.804506089579917 ], [ -41.949834454716971, -22.804506089579917 ], [ -41.954612043634299, -22.829535720813592 ], [ -41.965105943595191, -22.829535720813592 ], [ -41.969891497129815, -22.854567102938141 ], [ -41.980386593778256, -22.854567102938141 ], [ -41.983581525498863, -22.871255664901845 ], [ -41.994077420880238, -22.871255664901845 ], [ -41.995676416551703, -22.879600238309834 ], [ -42.006172711582082, -22.879600238309834 ], [ -42.010975423219691, -22.904635129286689 ], [ -42.021472918327937, -22.904635129286689 ], [ -42.0278887051239, -22.938017718942795 ], [ -42.017389607271006, -22.938017718942795 ], [ -42.022208179809731, -22.963056715511804 ], [ -42.011707877915718, -22.963056715511804 ], [ -42.014923237780664, -22.979750359455196 ], [ -42.035925448846783, -22.979750359455196 ], [ -42.034316586844781, -22.971403439468702 ], [ -42.044817290463776, -22.971403439468702 ], [ -42.043208783597734, -22.963056715511804 ], [ -42.064209387385745, -22.963056715511804 ], [ -42.062600834265403, -22.9547101874969 ], [ -42.10460043569752, -22.9547101874969 ], [ -42.102991034152453, -22.946363855336415 ], [ -42.123990032174468, -22.946363855336415 ], [ -42.104726628392541, -22.846223114207781 ], [ -42.13621072108576, -22.846223114207781 ], [ -42.137813043504927, -22.854567102938141 ], [ -42.179793430098705, -22.854567102938141 ], [ -42.171781398050818, -22.812849105593088 ], [ -42.161288294941073, -22.812849105593088 ], [ -42.15649133719657, -22.787820640311846 ], [ -42.145999427953868, -22.787820640311846 ], [ -42.144402349131006, -22.779478206882647 ], [ -42.133910837468299, -22.779478206882647 ], [ -42.132314910222817, -22.771135967473835 ], [ -42.121823795952345, -22.771135967473835 ], [ -42.120229019679272, -22.76279392199833 ], [ -42.099247585547431, -22.76279392199833 ], [ -42.097654356659049, -22.754452070369044 ], [ -42.087164036610048, -22.754452070369044 ], [ -42.085571957297539, -22.74611041249894 ], [ -42.054102187638549, -22.74611041249894 ], [ -42.055693076463029, -22.754452070369044 ] ] ] ] } }
]
}
