{
"type": "FeatureCollection",
"name": "campinas_fua",
"crs": { "type": "name", "properties": { "name": "urn:ogc:def:crs:OGC:1.3:CRS84" } },
"features": [
{ "type": "Feature", "properties": { "eFUA_ID": 6461.0, "eFUA_name": "Campinas", "UC_num": 3.0, "Cntry_ISO": "BRA", "FUA_area": 1571.0, "FUA_p_2015": 2509882.2236157889, "UC_p_2015": 2045928.0370998383 }, "geometry": { "type": "MultiPolygon", "coordinates": [ [ [ [ -46.996467585004631, -22.704405026490779 ], [ -46.985979643120004, -22.704405026490779 ], [ -46.996633819544613, -22.754452070369044 ], [ -46.986143499495618, -22.754452070369044 ], [ -46.991480737305906, -22.779478206882647 ], [ -46.980989225643185, -22.779478206882647 ], [ -46.982769588841776, -22.787820640311846 ], [ -46.972277679599067, -22.787820640311846 ], [ -46.974058486023083, -22.796163267848563 ], [ -46.963566179012588, -22.796163267848563 ], [ -46.965347428542572, -22.804506089579917 ], [ -46.95485472357641, -22.804506089579917 ], [ -46.956636416092913, -22.812849105593088 ], [ -46.946143312983168, -22.812849105593088 ], [ -46.949708425017477, -22.829535720813592 ], [ -46.939214525056585, -22.829535720813592 ], [ -46.940997944523581, -22.837879320195356 ], [ -46.930503645855005, -22.837879320195356 ], [ -46.93228750801881, -22.846223114207781 ], [ -46.921792810454406, -22.846223114207781 ], [ -46.923577115195641, -22.854567102938141 ], [ -46.913082018547207, -22.854567102938141 ], [ -46.914866765746474, -22.862911286473725 ], [ -46.904371269825717, -22.862911286473725 ], [ -46.906156459363608, -22.871255664901845 ], [ -46.874668773219476, -22.871255664901845 ], [ -46.876453605678556, -22.879600238309834 ], [ -46.855461015617792, -22.879600238309834 ], [ -46.859031605747774, -22.896289970414866 ], [ -46.869528700641531, -22.896289970414866 ], [ -46.87310345818274, -22.912980483487939 ], [ -46.88360135369409, -22.912980483487939 ], [ -46.887180282218111, -22.929671778228517 ], [ -46.897678979101734, -22.929671778228517 ], [ -46.903054899316913, -22.9547101874969 ], [ -46.913554799674941, -22.9547101874969 ], [ -46.917143769678354, -22.971403439468702 ], [ -46.927644473297356, -22.971403439468702 ], [ -46.931237626438609, -22.988097475558909 ], [ -46.941739134074872, -22.988097475558909 ], [ -46.948937198603907, -23.021487902899068 ], [ -46.959440316545418, -23.021487902899068 ], [ -46.970265241255568, -23.071579442335047 ], [ -47.012287397588608, -23.071579442335047 ], [ -47.010479507817685, -23.063230360235217 ], [ -47.136541128844229, -23.063230360235217 ], [ -47.134729242349195, -23.054881475130024 ], [ -47.15573870490428, -23.054881475130024 ], [ -47.153926862158691, -23.046532786931614 ], [ -47.164431189817897, -23.046532786931614 ], [ -47.162619794746739, -23.038184295552185 ], [ -47.194131567438106, -23.038184295552185 ], [ -47.192319813679966, -23.029836000903924 ], [ -47.213326855662459, -23.029836000903924 ], [ -47.211515147141952, -23.021487902899068 ], [ -47.232521383025002, -23.021487902899068 ], [ -47.230709720237869, -23.013140001449859 ], [ -47.251715150400301, -23.013140001449859 ], [ -47.249903533842058, -23.004792296468558 ], [ -47.270908158662607, -23.004792296468558 ], [ -47.269096588828624, -22.996444787867471 ], [ -47.290100408685916, -22.996444787867471 ], [ -47.288288886071385, -22.988097475558909 ], [ -47.298790393707648, -22.988097475558909 ], [ -47.296979320910793, -22.979750359455196 ], [ -47.317981531976912, -22.979750359455196 ], [ -47.316170507200241, -22.971403439468702 ], [ -47.326671210819235, -22.971403439468702 ], [ -47.328482637509978, -22.979750359455196 ], [ -47.349484848576097, -22.979750359455196 ], [ -47.351297931888944, -22.988097475558909 ], [ -47.372300947161463, -22.988097475558909 ], [ -47.374115688115076, -22.996444787867471 ], [ -47.40562141790101, -22.996444787867471 ], [ -47.403805470070239, -22.988097475558909 ], [ -47.393303962433976, -22.988097475558909 ], [ -47.391489270708355, -22.979750359455196 ], [ -47.380988165175289, -22.979750359455196 ], [ -47.379174728914222, -22.971403439468702 ], [ -47.368674025295228, -22.971403439468702 ], [ -47.366861843858487, -22.963056715511804 ], [ -47.356361541964482, -22.963056715511804 ], [ -47.354550614712174, -22.9547101874969 ], [ -47.344050714354147, -22.9547101874969 ], [ -47.342241040646726, -22.946363855336415 ], [ -47.331741541635722, -22.946363855336415 ], [ -47.329933120834006, -22.938017718942795 ], [ -47.31943402298112, -22.938017718942795 ], [ -47.317626854446274, -22.929671778228517 ], [ -47.307128157562659, -22.929671778228517 ], [ -47.303517174148134, -22.912980483487939 ], [ -47.293019278636791, -22.912980483487939 ], [ -47.284008693093092, -22.871255664901845 ], [ -47.294504588474467, -22.871255664901845 ], [ -47.287309800586456, -22.837879320195356 ], [ -47.297804099255032, -22.837879320195356 ], [ -47.29600712372681, -22.829535720813592 ], [ -47.306501023687709, -22.829535720813592 ], [ -47.304704497370849, -22.821192315975242 ], [ -47.315197998812145, -22.821192315975242 ], [ -47.313401921824116, -22.812849105593088 ], [ -47.323895024933861, -22.812849105593088 ], [ -47.316717598850104, -22.779478206882647 ], [ -47.327209110512818, -22.779478206882647 ], [ -47.329002593851108, -22.787820640311846 ], [ -47.391954049307351, -22.787820640311846 ], [ -47.390158180489124, -22.779478206882647 ], [ -47.442615738802701, -22.779478206882647 ], [ -47.440818731082572, -22.771135967473835 ], [ -47.472292073893989, -22.771135967473835 ], [ -47.470494723299808, -22.76279392199833 ], [ -47.491476157431649, -22.76279392199833 ], [ -47.489678861847878, -22.754452070369044 ], [ -47.521149821994889, -22.754452070369044 ], [ -47.519352185084216, -22.74611041249894 ], [ -47.529842108303889, -22.74611041249894 ], [ -47.528044924216857, -22.737768948300978 ], [ -47.50706587106118, -22.737768948300978 ], [ -47.505270329277586, -22.729427677688157 ], [ -47.47380293890712, -22.729427677688157 ], [ -47.4720094346862, -22.721086600573493 ], [ -47.440543233116593, -22.721086600573493 ], [ -47.438751765076425, -22.712745716870018 ], [ -47.41777508952255, -22.712745716870018 ], [ -47.415985260389625, -22.704405026490779 ], [ -47.384521434735753, -22.704405026490779 ], [ -47.382733639209057, -22.696064529348874 ], [ -47.277858177413563, -22.696064529348874 ], [ -47.279642015889507, -22.704405026490779 ], [ -47.258666132120247, -22.704405026490779 ], [ -47.260450022868532, -22.712745716870018 ], [ -47.249961685091598, -22.712745716870018 ], [ -47.251746023698928, -22.721086600573493 ], [ -47.241257289842387, -22.721086600573493 ], [ -47.243042076190378, -22.729427677688157 ], [ -47.232552946066889, -22.729427677688157 ], [ -47.230768555985847, -22.721086600573493 ], [ -47.220279822129314, -22.721086600573493 ], [ -47.218496671760796, -22.712745716870018 ], [ -47.155566645099185, -22.712745716870018 ], [ -47.157347418990092, -22.721086600573493 ], [ -47.146858685133552, -22.721086600573493 ], [ -47.14863990507898, -22.729427677688157 ], [ -47.138150774955498, -22.729427677688157 ], [ -47.139932440836589, -22.737768948300978 ], [ -47.118953387680897, -22.737768948300978 ], [ -47.12073510273693, -22.74611041249894 ], [ -47.099755256297605, -22.74611041249894 ], [ -47.097974334525205, -22.737768948300978 ], [ -47.087484807947362, -22.737768948300978 ], [ -47.085705124338055, -22.729427677688157 ], [ -47.075215994214574, -22.729427677688157 ], [ -47.073437548137797, -22.721086600573493 ], [ -47.062948814281256, -22.721086600573493 ], [ -47.061171605106772, -22.712745716870018 ], [ -47.050683267329838, -22.712745716870018 ], [ -47.04890729442775, -22.704405026490779 ], [ -47.03841935254313, -22.704405026490779 ], [ -47.036644615283898, -22.696064529348874 ], [ -47.026157069104343, -22.696064529348874 ], [ -47.024383566858766, -22.687724225357393 ], [ -47.013896416197106, -22.687724225357393 ], [ -47.012124148336305, -22.679384114429464 ], [ -47.001637393005424, -22.679384114429464 ], [ -46.999866358900874, -22.671044196478231 ], [ -46.989379998713694, -22.671044196478231 ], [ -46.996467585004631, -22.704405026490779 ] ] ] ] } }
]
}
