{
"type": "FeatureCollection",
"name": "divinopolis_fua",
"crs": { "type": "name", "properties": { "name": "urn:ogc:def:crs:OGC:1.3:CRS84" } },
"features": [
{ "type": "Feature", "properties": { "eFUA_ID": 6798.0, "eFUA_name": "Divinópolis", "UC_num": 1.0, "Cntry_ISO": "BRA", "FUA_area": 284.0, "FUA_p_2015": 244996.63727200031, "UC_p_2015": 190798.62509155273 }, "geometry": { "type": "MultiPolygon", "coordinates": [ [ [ [ -44.824567616688299, -20.061409737469845 ], [ -44.803825105065584, -20.061409737469845 ], [ -44.805289687772273, -20.06969324909787 ], [ -44.784546498102003, -20.06969324909787 ], [ -44.78601114113841, -20.077976927430299 ], [ -44.775639207108505, -20.077976927430299 ], [ -44.778570030204712, -20.094544784531244 ], [ -44.76819741727207, -20.094544784531244 ], [ -44.77259817379273, -20.119397822484 ], [ -44.762224541222338, -20.119397822484 ], [ -44.766630929617229, -20.144252365137124 ], [ -44.756256275867607, -20.144252365137124 ], [ -44.760668298435199, -20.169108414673076 ], [ -44.750292621963609, -20.169108414673076 ], [ -44.754710281009544, -20.193965973275731 ], [ -44.899984091335106, -20.193965973275731 ], [ -44.901462909820367, -20.202252161869108 ], [ -44.95334812233461, -20.202252161869108 ], [ -44.945952921499753, -20.160822897261557 ], [ -44.956328256892526, -20.160822897261557 ], [ -44.95485110553107, -20.152537547443195 ], [ -44.965226100016544, -20.152537547443195 ], [ -44.962273344615291, -20.135967350262465 ], [ -44.972647657800479, -20.135967350262465 ], [ -44.971172053874056, -20.127682502738367 ], [ -44.98154602666618, -20.127682502738367 ], [ -44.980070825200478, -20.119397822484 ], [ -44.99044445777087, -20.119397822484 ], [ -44.987495602670499, -20.102828963461224 ], [ -44.977122650029813, -20.102828963461224 ], [ -44.975649675924856, -20.094544784531244 ], [ -44.91341399832902, -20.094544784531244 ], [ -44.911943803499348, -20.086260772547849 ], [ -44.901571530103624, -20.086260772547849 ], [ -44.900102415467387, -20.077976927430299 ], [ -44.87935854740757, -20.077976927430299 ], [ -44.877890851618197, -20.06969324909787 ], [ -44.867519256783069, -20.06969324909787 ], [ -44.866052639933727, -20.061409737469845 ], [ -44.85568138412237, -20.061409737469845 ], [ -44.854215845672307, -20.053126392465536 ], [ -44.8231030947967, -20.053126392465536 ], [ -44.824567616688299, -20.061409737469845 ] ] ] ] } }
]
}
