{
"type": "FeatureCollection",
"name": "fortaleza_fua",
"crs": { "type": "name", "properties": { "name": "urn:ogc:def:crs:OGC:1.3:CRS84" } },
"features": [
{ "type": "Feature", "properties": { "eFUA_ID": 7226.0, "eFUA_name": "Fortaleza", "UC_num": 2.0, "Cntry_ISO": "BRA", "FUA_area": 1557.0, "FUA_p_2015": 3611864.2269318849, "UC_p_2015": 3272823.4560946226 }, "geometry": { "type": "MultiPolygon", "coordinates": [ [ [ [ -38.751398390948339, -3.616112461342261 ], [ -38.731418293814571, -3.616112461342261 ], [ -38.731631849044824, -3.624206331815903 ], [ -38.71165164174586, -3.624206331815903 ], [ -38.711865567325667, -3.632300230032411 ], [ -38.691885249613492, -3.632300230032411 ], [ -38.692099545070626, -3.640394156054076 ], [ -38.682109330883932, -3.640394156054076 ], [ -38.682324051200858, -3.648488109943195 ], [ -38.67233378155953, -3.648488109943195 ], [ -38.6725489265121, -3.656582091762063 ], [ -38.662558601292119, -3.656582091762063 ], [ -38.662774170656249, -3.664676101572979 ], [ -38.652783789733604, -3.664676101572979 ], [ -38.652999783285225, -3.672770139438249 ], [ -38.643009346535855, -3.672770139438249 ], [ -38.64322576405096, -3.680864205420174 ], [ -38.613254285950603, -3.680864205420174 ], [ -38.613471015055609, -3.688958299581063 ], [ -38.563518271181017, -3.688958299581063 ], [ -38.563735198758032, -3.697052421983225 ], [ -38.543753988810479, -3.697052421983225 ], [ -38.543971282611857, -3.705146572688971 ], [ -38.504008637425123, -3.705146572688971 ], [ -38.504226184084843, -3.713240751760618 ], [ -38.484244748597504, -3.713240751760618 ], [ -38.484027314831749, -3.705146572688971 ], [ -38.454055330941685, -3.705146572688971 ], [ -38.454490337345192, -3.721334959260481 ], [ -38.444499563030483, -3.721334959260481 ], [ -38.445155484074959, -3.745617752952578 ], [ -38.43516453930259, -3.745617752952578 ], [ -38.43560409333498, -3.76180642536432 ], [ -38.425613034303701, -3.76180642536432 ], [ -38.426054383388717, -3.777995212984754 ], [ -38.416063209602086, -3.777995212984754 ], [ -38.416506352943486, -3.794184116312569 ], [ -38.406515063905005, -3.794184116312569 ], [ -38.406960000707244, -3.810373135846495 ], [ -38.396968595920384, -3.810373135846495 ], [ -38.397639405840337, -3.834656884124913 ], [ -38.387647826499752, -3.834656884124913 ], [ -38.388097301973218, -3.850846196356326 ], [ -38.378105605642666, -3.850846196356326 ], [ -38.378331000342001, -3.858940896672848 ], [ -38.368339245330198, -3.858940896672848 ], [ -38.368791348034513, -3.875130386019336 ], [ -38.358799475287626, -3.875130386019336 ], [ -38.359026182970432, -3.88322517517404 ], [ -38.349034251169705, -3.88322517517404 ], [ -38.349261376506917, -3.891319994066207 ], [ -38.339269385528155, -3.891319994066207 ], [ -38.339953443763271, -3.915604629791249 ], [ -38.329961274505052, -3.915604629791249 ], [ -38.331573675244684, -3.972269832271993 ], [ -38.341566264836779, -3.972269832271993 ], [ -38.342031362259817, -3.988460163001184 ], [ -38.352024073065721, -3.988460163001184 ], [ -38.352257397933506, -3.996555374157373 ], [ -38.402221255929774, -3.996555374157373 ], [ -38.402455362453381, -4.004650615924501 ], [ -38.47240519007169, -4.004650615924501 ], [ -38.472640201604172, -4.01274588836498 ], [ -38.522604669398461, -4.01274588836498 ], [ -38.522840465373839, -4.020841191541223 ], [ -38.542826374824102, -4.020841191541223 ], [ -38.543062772640084, -4.028936525515646 ], [ -38.563048804671524, -4.028936525515646 ], [ -38.563285804851773, -4.03703189035067 ], [ -38.593265037143702, -4.03703189035067 ], [ -38.593502701751227, -4.045127286108716 ], [ -38.61348897969102, -4.045127286108716 ], [ -38.61372724783476, -4.053222712852208 ], [ -38.623720448468255, -4.053222712852208 ], [ -38.624198549935443, -4.069413659545248 ], [ -38.634191874269185, -4.069413659545248 ], [ -38.634431708019022, -4.077509179619658 ], [ -38.644425094389433, -4.077509179619658 ], [ -38.642755922075395, -4.020841191541223 ], [ -38.632762967350274, -4.020841191541223 ], [ -38.631585429071357, -3.980364982393526 ], [ -38.621592778934506, -3.980364982393526 ], [ -38.620427554530522, -3.939889535399092 ], [ -38.630419903186294, -3.939889535399092 ], [ -38.629496129217571, -3.907509721312433 ], [ -38.639488238925075, -3.907509721312433 ], [ -38.639029114891159, -3.891319994066207 ], [ -38.659013096848696, -3.891319994066207 ], [ -38.659242537289508, -3.899414842758212 ], [ -38.669234587570521, -3.899414842758212 ], [ -38.669925971306313, -3.923699568257041 ], [ -38.679918200239463, -3.923699568257041 ], [ -38.680614091045463, -3.947984564200129 ], [ -38.69060649974891, -3.947984564200129 ], [ -38.691541329892473, -3.980364982393526 ], [ -38.701533980029325, -3.980364982393526 ], [ -38.701768951272413, -3.988460163001184 ], [ -38.721754372884227, -3.988460163001184 ], [ -38.720816892140256, -3.956079623237693 ], [ -38.71082442326486, -3.956079623237693 ], [ -38.71012654906874, -3.931794536772192 ], [ -38.700134260336405, -3.931794536772192 ], [ -38.698981060763757, -3.891319994066207 ], [ -38.728957033700055, -3.891319994066207 ], [ -38.728727659597126, -3.88322517517404 ], [ -38.818655045803624, -3.88322517517404 ], [ -38.818425621644288, -3.875130386019336 ], [ -38.808433748897407, -3.875130386019336 ], [ -38.808204866188149, -3.86703562653973 ], [ -38.798213052370897, -3.86703562653973 ], [ -38.797984710837795, -3.858940896672848 ], [ -38.787992955825999, -3.858940896672848 ], [ -38.786184047367129, -3.794184116312569 ], [ -38.776192758328655, -3.794184116312569 ], [ -38.77463566459128, -3.737523459794137 ], [ -38.784626552420335, -3.737523459794137 ], [ -38.784405980226985, -3.72942919525088 ], [ -38.804387642246688, -3.72942919525088 ], [ -38.804167438360295, -3.721334959260481 ], [ -38.824148986989726, -3.721334959260481 ], [ -38.823929151882119, -3.713240751760618 ], [ -38.833919869625788, -3.713240751760618 ], [ -38.832827644773751, -3.672770139438249 ], [ -38.822837208024389, -3.672770139438249 ], [ -38.821757314742584, -3.632300230032411 ], [ -38.8117671558865, -3.632300230032411 ], [ -38.811552678240687, -3.624206331815903 ], [ -38.791572470941723, -3.624206331815903 ], [ -38.791358585215882, -3.616112461342261 ], [ -38.781368536648991, -3.616112461342261 ], [ -38.781155187364703, -3.608018618549196 ], [ -38.751185206539851, -3.608018618549196 ], [ -38.751398390948339, -3.616112461342261 ] ] ] ] } }
]
}
