{
"type": "FeatureCollection",
"name": "lavras_fua",
"crs": { "type": "name", "properties": { "name": "urn:ogc:def:crs:OGC:1.3:CRS84" } },
"features": [
{ "type": "Feature", "properties": { "eFUA_ID": 6804.0, "eFUA_name": "Lavras", "UC_num": 1.0, "Cntry_ISO": "BRA", "FUA_area": 129.0, "FUA_p_2015": 104527.6007213071, "UC_p_2015": 86932.114379882812 }, "geometry": { "type": "MultiPolygon", "coordinates": [ [ [ [ -44.924958227887004, -21.181224249943849 ], [ -44.935376817457474, -21.181224249943849 ], [ -44.93850483024508, -21.197837935643637 ], [ -44.948924145067764, -21.197837935643637 ], [ -44.952055946842592, -21.21445233273451 ], [ -44.96247598762767, -21.21445233273451 ], [ -44.965611581549751, -21.231067441882306 ], [ -44.976032349007816, -21.231067441882306 ], [ -44.977601659935537, -21.239375263685716 ], [ -44.96718052887438, -21.239375263685716 ], [ -44.970320725340642, -21.255991442168042 ], [ -44.959898866539881, -21.255991442168042 ], [ -44.961469751981234, -21.264299799013603 ], [ -44.951047529043827, -21.264299799013603 ], [ -44.952618817847046, -21.272608334373245 ], [ -44.942196230595052, -21.272608334373245 ], [ -44.943767922622641, -21.280917048330334 ], [ -44.933344970878068, -21.280917048330334 ], [ -44.934917065992501, -21.289225940968262 ], [ -44.924493749577287, -21.289225940968262 ], [ -44.927639513543525, -21.305844262620319 ], [ -44.948487606125212, -21.305844262620319 ], [ -44.946913610168963, -21.297535012370442 ], [ -44.967760972696873, -21.297535012370442 ], [ -44.966187015238148, -21.289225940968262 ], [ -44.976610331653355, -21.289225940968262 ], [ -44.975036777856381, -21.280917048330334 ], [ -44.995882681345542, -21.280917048330334 ], [ -44.994309166855025, -21.272608334373245 ], [ -45.015154341359008, -21.272608334373245 ], [ -45.013580866668278, -21.264299799013603 ], [ -45.034425312543092, -21.264299799013603 ], [ -45.029707315241296, -21.239375263685716 ], [ -45.040128446302447, -21.239375263685716 ], [ -45.038556953756206, -21.231067441882306 ], [ -45.048977721214278, -21.231067441882306 ], [ -45.045836313908332, -21.21445233273451 ], [ -45.056256354693403, -21.21445233273451 ], [ -45.054686440030508, -21.206145045223582 ], [ -45.0651061177456, -21.206145045223582 ], [ -45.06353660811731, -21.197837935643637 ], [ -45.073955922939994, -21.197837935643637 ], [ -45.070818481873658, -21.181224249943849 ], [ -45.060399892303174, -21.181224249943849 ], [ -45.058832685681992, -21.172917673657619 ], [ -44.996323322418625, -21.172917673657619 ], [ -44.99475905612649, -21.164611274969616 ], [ -44.921834000930176, -21.164611274969616 ], [ -44.924958227887004, -21.181224249943849 ] ] ] ] } }
]
}
